STARLINK-30284          
1 57877U 23144P   25106.69918832 -.00001392  00000+0 -88009-4 0  9993
2 57877  43.0010 225.9355 0000679 267.2832  92.7933 15.02532648 88866
STARLINK-30433          
1 57878U 23144Q   25106.70498278  .00007862  00000+0  59614-3 0  9998
2 57878  43.0016 264.2187 0001134 281.4246  78.6469 15.02555224 88420
STARLINK-30358          
1 57879U 23144R   25106.50332532  .00001141  00000+0  99548-4 0  9992
2 57879  43.0047 265.2844 0001528 273.2811  86.7857 15.02536146 88399
STARLINK-30436          
1 57880U 23144S   25106.76146544  .00000215  00000+0  30960-4 0  9992
2 57880  43.0035 263.7820 0001494 268.5382  91.5289 15.02533881 88438
STARLINK-30339          
1 57882U 23144U   25106.49222272  .00000909  00000+0  82367-4 0  9995
2 57882  42.9981 265.2036 0001156 261.9481  98.1230 15.02539512 88397
STARLINK-30282          
1 57883U 23144V   25106.81905272  .00004440  00000+0  34343-3 0  9994
2 57883  43.0051 263.3551 0002822 262.4138  97.6384 15.02552213 88448
STARLINK-30340          
1 57884U 23144W   25106.81462495  .00000615  00000+0  60611-4 0  9998
2 57884  43.0032 263.3102 0001740 259.4271 100.6376 15.02536263 88445
STARLINK-30279          
1 57885U 23144X   25106.88442499  .00001193  00000+0  10338-3 0  9990
2 57885  43.0014 262.9810 0000936 233.0907 126.9850 15.02543164 88397
STARLINK-30465          
1 57891U 23146A   25106.55504545 -.00028366  00000+0 -21014-2 0  9999
2 57891  42.9970 291.1664 0001697 327.7917  32.2822 15.02389465 87750
STARLINK-30470          
1 57892U 23146B   25106.81748598  .00000923  00000+0  83370-4 0  9999
2 57892  43.0027 289.6982 0000670 261.2675  98.8092 15.02542850 87895
STARLINK-30473          
1 57893U 23146C   25106.86064882  .00000324  00000+0  39058-4 0  9991
2 57893  43.0027 289.1028 0001211 277.0906  82.9799 15.02538352 87908
STARLINK-30443          
1 57894U 23146D   25106.87730006 -.00007089  00000+0 -50989-3 0  9993
2 57894  43.0044 289.2832 0000842 204.8735 155.2067 15.02559732 87850
STARLINK-30467          
1 57895U 23146E   25106.81413609  .00003015  00000+0  23798-3 0  9996
2 57895  43.0015 289.6659 0000538 254.5960 105.4822 15.02558527 87895
STARLINK-30469          
1 57896U 23146F   25106.80747981  .00003664  00000+0  28586-3 0  9999
2 57896  43.0037 289.6197 0001585 273.9221  86.1440 15.02572866 87898
