[
  {
    "OBJECT_NAME": "STARLINK-30284",
    "OBJECT_ID": "2023-144P",
    "EPOCH": "2025-04-16T16:46:49.870848",
    "MEAN_MOTION": 15.02532648,
    "ECCENTRICITY": 6.79e-5,
    "INCLINATION": 43.001,
    "RA_OF_ASC_NODE": 225.9355,
    "ARG_OF_PERICENTER": 267.2832,
    "MEAN_ANOMALY": 92.7933,
    "EPHEMERIS_TYPE": 0,
    "CLASSIFICATION_TYPE": "U",
    "NORAD_CAT_ID": 57877,
    "ELEMENT_SET_NO": 999,
    "REV_AT_EPOCH": 8886,
    "BSTAR": -8.8009e-5,
    "MEAN_MOTION_DOT": -1.392e-5,
    "MEAN_MOTION_DDOT": 0
  },
  {
    "OBJECT_NAME": "STARLINK-30433",
    "OBJECT_ID": "2023-144Q",
    "EPOCH": "2025-04-16T16:55:10.512192",
    "MEAN_MOTION": 15.02555224,
    "ECCENTRICITY": 0.0001134,
    "INCLINATION": 43.0016,
    "RA_OF_ASC_NODE": 264.2187,
    "ARG_OF_PERICENTER": 281.4246,
    "MEAN_ANOMALY": 78.6469,
    "EPHEMERIS_TYPE": 0,
    "CLASSIFICATION_TYPE": "U",
    "NORAD_CAT_ID": 57878,
    "ELEMENT_SET_NO": 999,
    "REV_AT_EPOCH": 8842,
    "BSTAR": 0.00059614,
    "MEAN_MOTION_DOT": 7.862e-5,
    "MEAN_MOTION_DDOT": 0
  },
  {
    "OBJECT_NAME": "STARLINK-30358",
    "OBJECT_ID": "2023-144R",
    "EPOCH": "2025-04-16T12:04:47.307648",
    "MEAN_MOTION": 15.02536146,
    "ECCENTRICITY": 0.0001528,
    "INCLINATION": 43.0047,
    "RA_OF_ASC_NODE": 265.2844,
    "ARG_OF_PERICENTER": 273.2811,
    "MEAN_ANOMALY": 86.7857,
    "EPHEMERIS_TYPE": 0,
    "CLASSIFICATION_TYPE": "U",
    "NORAD_CAT_ID": 57879,
    "ELEMENT_SET_NO": 999,
    "REV_AT_EPOCH": 8839,
    "BSTAR": 9.9548e-5,
    "MEAN_MOTION_DOT": 1.141e-5,
    "MEAN_MOTION_DDOT": 0
  },
  {
    "OBJECT_NAME": "STARLINK-30436",
    "OBJECT_ID": "2023-144S",
    "EPOCH": "2025-04-16T18:16:30.614016",
    "MEAN_MOTION": 15.02533881,
    "ECCENTRICITY": 0.0001494,
    "INCLINATION": 43.0035,
    "RA_OF_ASC_NODE": 263.782,
    "ARG_OF_PERICENTER": 268.5382,
    "MEAN_ANOMALY": 91.5289,
    "EPHEMERIS_TYPE": 0,
    "CLASSIFICATION_TYPE": "U",
    "NORAD_CAT_ID": 57880,
    "ELEMENT_SET_NO": 999,
    "REV_AT_EPOCH": 8843,
    "BSTAR": 3.096e-5,
    "MEAN_MOTION_DOT": 2.15e-6,
    "MEAN_MOTION_DDOT": 0
  },
  {
    "OBJECT_NAME": "STARLINK-30339",
    "OBJECT_ID": "2023-144U",
    "EPOCH": "2025-04-16T11:48:48.043008",
    "MEAN_MOTION": 15.02539512,
    "ECCENTRICITY": 0.0001156,
    "INCLINATION": 42.9981,
    "RA_OF_ASC_NODE": 265.2036,
    "ARG_OF_PERICENTER": 261.9481,
    "MEAN_ANOMALY": 98.123,
    "EPHEMERIS_TYPE": 0,
    "CLASSIFICATION_TYPE": "U",
    "NORAD_CAT_ID": 57882,
    "ELEMENT_SET_NO": 999,
    "REV_AT_EPOCH": 8839,
    "BSTAR": 8.2367e-5,
    "MEAN_MOTION_DOT": 9.09e-6,
    "MEAN_MOTION_DDOT": 0
  },
  {
    "OBJECT_NAME": "STARLINK-30282",
    "OBJECT_ID": "2023-144V",
    "EPOCH": "2025-04-16T19:39:26.155008",
    "MEAN_MOTION": 15.02552213,
    "ECCENTRICITY": 0.0002822,
    "INCLINATION": 43.0051,
    "RA_OF_ASC_NODE": 263.3551,
    "ARG_OF_PERICENTER": 262.4138,
    "MEAN_ANOMALY": 97.6384,
    "EPHEMERIS_TYPE": 0,
    "CLASSIFICATION_TYPE": "U",
    "NORAD_CAT_ID": 57883,
    "ELEMENT_SET_NO": 999,
    "REV_AT_EPOCH": 8844,
    "BSTAR": 0.00034343,
    "MEAN_MOTION_DOT": 4.44e-5,
    "MEAN_MOTION_DDOT": 0
  },
  {
    "OBJECT_NAME": "STARLINK-30340",
    "OBJECT_ID": "2023-144W",
    "EPOCH": "2025-04-16T19:33:03.595680",
    "MEAN_MOTION": 15.02536263,
    "ECCENTRICITY": 0.000174,
    "INCLINATION": 43.0032,
    "RA_OF_ASC_NODE": 263.3102,
    "ARG_OF_PERICENTER": 259.4271,
    "MEAN_ANOMALY": 100.6376,
    "EPHEMERIS_TYPE": 0,
    "CLASSIFICATION_TYPE": "U",
    "NORAD_CAT_ID": 57884,
    "ELEMENT_SET_NO": 999,
    "REV_AT_EPOCH": 8844,
    "BSTAR": 6.0611e-5,
    "MEAN_MOTION_DOT": 6.15e-6,
    "MEAN_MOTION_DDOT": 0
  },
  {
    "OBJECT_NAME": "STARLINK-30279",
    "OBJECT_ID": "2023-144X",
    "EPOCH": "2025-04-16T21:13:34.319136",
    "MEAN_MOTION": 15.02543164,
    "ECCENTRICITY": 9.36e-5,
    "INCLINATION": 43.0014,
    "RA_OF_ASC_NODE": 262.981,
    "ARG_OF_PERICENTER": 233.0907,
    "MEAN_ANOMALY": 126.985,
    "EPHEMERIS_TYPE": 0,
    "CLASSIFICATION_TYPE": "U",
    "NORAD_CAT_ID": 57885,
    "ELEMENT_SET_NO": 999,
    "REV_AT_EPOCH": 8839,
    "BSTAR": 0.00010338,
    "MEAN_MOTION_DOT": 1.193e-5,
    "MEAN_MOTION_DDOT": 0
  },
  {
    "OBJECT_NAME": "STARLINK-30465",
    "OBJECT_ID": "2023-146A",
    "EPOCH": "2025-04-16T13:19:15.926880",
    "MEAN_MOTION": 15.02389465,
    "ECCENTRICITY": 0.0001697,
    "INCLINATION": 42.997,
    "RA_OF_ASC_NODE": 291.1664,
    "ARG_OF_PERICENTER": 327.7917,
    "MEAN_ANOMALY": 32.2822,
    "EPHEMERIS_TYPE": 0,
    "CLASSIFICATION_TYPE": "U",
    "NORAD_CAT_ID": 57891,
    "ELEMENT_SET_NO": 999,
    "REV_AT_EPOCH": 8775,
    "BSTAR": -0.0021014,
    "MEAN_MOTION_DOT": -0.00028366,
    "MEAN_MOTION_DDOT": 0
  },
  {
    "OBJECT_NAME": "STARLINK-30470",
    "OBJECT_ID": "2023-146B",
    "EPOCH": "2025-04-16T19:37:10.788672",
    "MEAN_MOTION": 15.0254285,
    "ECCENTRICITY": 6.7e-5,
    "INCLINATION": 43.0027,
    "RA_OF_ASC_NODE": 289.6982,
    "ARG_OF_PERICENTER": 261.2675,
    "MEAN_ANOMALY": 98.8092,
    "EPHEMERIS_TYPE": 0,
    "CLASSIFICATION_TYPE": "U",
    "NORAD_CAT_ID": 57892,
    "ELEMENT_SET_NO": 999,
    "REV_AT_EPOCH": 8789,
    "BSTAR": 8.337e-5,
    "MEAN_MOTION_DOT": 9.23e-6,
    "MEAN_MOTION_DDOT": 0
  },
  {
    "OBJECT_NAME": "STARLINK-30473",
    "OBJECT_ID": "2023-146C",
    "EPOCH": "2025-04-16T20:39:20.058048",
    "MEAN_MOTION": 15.02538352,
    "ECCENTRICITY": 0.0001211,
    "INCLINATION": 43.0027,
    "RA_OF_ASC_NODE": 289.1028,
    "ARG_OF_PERICENTER": 277.0906,
    "MEAN_ANOMALY": 82.9799,
    "EPHEMERIS_TYPE": 0,
    "CLASSIFICATION_TYPE": "U",
    "NORAD_CAT_ID": 57893,
    "ELEMENT_SET_NO": 999,
    "REV_AT_EPOCH": 8790,
    "BSTAR": 3.9058e-5,
    "MEAN_MOTION_DOT": 3.24e-6,
    "MEAN_MOTION_DDOT": 0
  },
  {
    "OBJECT_NAME": "STARLINK-30443",
    "OBJECT_ID": "2023-146D",
    "EPOCH": "2025-04-16T21:03:18.725184",
    "MEAN_MOTION": 15.02559732,
    "ECCENTRICITY": 8.42e-5,
    "INCLINATION": 43.0044,
    "RA_OF_ASC_NODE": 289.2832,
    "ARG_OF_PERICENTER": 204.8735,
    "MEAN_ANOMALY": 155.2067,
    "EPHEMERIS_TYPE": 0,
    "CLASSIFICATION_TYPE": "U",
    "NORAD_CAT_ID": 57894,
    "ELEMENT_SET_NO": 999,
    "REV_AT_EPOCH": 8785,
    "BSTAR": -0.00050989,
    "MEAN_MOTION_DOT": -7.089e-5,
    "MEAN_MOTION_DDOT": 0
  },
  {
    "OBJECT_NAME": "STARLINK-30467",
    "OBJECT_ID": "2023-146E",
    "EPOCH": "2025-04-16T19:32:21.358176",
    "MEAN_MOTION": 15.02558527,
    "ECCENTRICITY": 5.38e-5,
    "INCLINATION": 43.0015,
    "RA_OF_ASC_NODE": 289.6659,
    "ARG_OF_PERICENTER": 254.596,
    "MEAN_ANOMALY": 105.4822,
    "EPHEMERIS_TYPE": 0,
    "CLASSIFICATION_TYPE": "U",
    "NORAD_CAT_ID": 57895,
    "ELEMENT_SET_NO": 999,
    "REV_AT_EPOCH": 8789,
    "BSTAR": 0.00023798,
    "MEAN_MOTION_DOT": 3.015e-5,
    "MEAN_MOTION_DDOT": 0
  },
  {
    "OBJECT_NAME": "STARLINK-30469",
    "OBJECT_ID": "2023-146F",
    "EPOCH": "2025-04-16T19:22:46.255584",
    "MEAN_MOTION": 15.02572866,
    "ECCENTRICITY": 0.0001585,
    "INCLINATION": 43.0037,
    "RA_OF_ASC_NODE": 289.6197,
    "ARG_OF_PERICENTER": 273.9221,
    "MEAN_ANOMALY": 86.144,
    "EPHEMERIS_TYPE": 0,
    "CLASSIFICATION_TYPE": "U",
    "NORAD_CAT_ID": 57896,
    "ELEMENT_SET_NO": 999,
    "REV_AT_EPOCH": 8789,
    "BSTAR": 0.00028586,
    "MEAN_MOTION_DOT": 3.664e-5,
    "MEAN_MOTION_DDOT": 0
  }
]
